OBJECT_NAME,OBJECT_ID,EPOCH,MEAN_MOTION,ECCENTRICITY,INCLINATION,RA_OF_ASC_NODE,ARG_OF_PERICENTER,MEAN_ANOMALY,EPHEMERIS_TYPE,CLASSIFICATION_TYPE,NORAD_CAT_ID,ELEMENT_SET_NO,REV_AT_EPOCH,BSTAR,MEAN_MOTION_DOT,MEAN_MOTION_DDOT
LEMUR-2-LAILA,2025-276DQ,2026-06-11T04:03:55.687392,15.21204262,.00018283,97.4179,236.1463,143.6589,216.4771,0,U,66776,999,2953,.22419742E-3,.4932E-4,0
LEMUR-2-CELIJO-SB-PK,2025-276DW,2026-06-11T03:59:02.559840,14.99898304,.00088955,97.5277,233.1403,146.9122,213.2660,0,U,66781,999,2172,.40570392E-3,.4979E-4,0
LEMUR-2-FINNIAN,2025-276DX,2026-06-11T03:28:11.867520,15.00299640,.00087159,97.5272,233.3286,107.3645,252.8533,0,U,66782,999,1909,.45410215E-3,.564E-4,0
LEMUR-2-STARLIGHT,2025-276DY,2026-06-11T10:18:13.740480,14.98982455,.00153293,97.5279,233.2642,143.9923,216.2337,0,U,66783,999,2933,.36669008E-3,.4395E-4,0
LEMUR-2-TARTIFLETTE,2025-276DZ,2026-06-11T03:51:42.357024,14.99008293,.00139991,97.5281,233.0105,150.8950,209.3057,0,U,66784,999,2929,.43704434E-3,.5251E-4,0
LEMUR-2-VUKASIN,2025-276EA,2026-06-11T03:50:03.632928,15.00300144,.00063188,97.5314,233.2915,138.3619,221.8087,0,U,66785,999,2924,.39868939E-3,.4942E-4,0
LEMUR-2-HOTSPUR-TOM,2025-276EB,2026-06-11T03:40:20.284320,14.98886330,.00154495,97.5266,232.9859,145.9165,214.3054,0,U,66786,999,2922,.49163735E-3,.5898E-4,0
LEMUR-2-MYRA,2025-276EC,2026-06-11T10:58:48.628992,15.00162663,.00159137,97.5223,233.5269,160.4419,199.7419,0,U,66787,999,2935,.4495649E-3,.5572E-4,0
LEMUR-2 FIKRETDENGIZ,2026-004A,2026-06-11T13:17:51.787968,14.88285645,.00096391,97.8010,161.1988,148.9344,211.2445,0,U,67363,999,2244,.4162654E-3,.3796E-4,0
TWILIGHT-1 OBJECT B,2026-004B,2026-06-10T23:18:03.203424,14.87680566,.00095476,97.8060,160.6426,142.2653,217.9235,0,U,67364,999,2236,.17945055E-3,.1581E-4,0
LEMUR-2-MARIO-SOUSA,2026-004C,2026-06-11T14:32:05.706240,14.88469448,.00092649,97.7987,161.2458,149.4636,210.7122,0,U,67365,999,2246,.47745583E-3,.4383E-4,0
LEMUR-2-SONNENBLUME,2026-004E,2026-06-11T12:51:56.135232,14.88286937,.00087292,97.7981,161.1641,151.5281,208.6414,0,U,67367,999,2245,.30107327E-3,.273E-4,0
LEMUR-2-WOBLER,2026-004F,2026-06-11T14:20:26.064960,14.88479015,.00091784,97.8033,161.3411,141.4168,218.7707,0,U,67368,999,2246,.39578299E-3,.3624E-4,0
LEMUR-2-GRAM-E-SUE,2026-004H,2026-06-11T12:29:56.719104,14.88446047,.00078528,97.7963,161.1642,152.2002,207.9636,0,U,67370,999,2245,.22586018E-3,.2042E-4,0
LEMUR-2-KATIE,2026-004AA,2026-06-11T13:56:55.721472,14.90014268,.00047255,97.8031,161.6644,104.7192,255.4549,0,U,67387,999,2247,.3474236E-3,.3297E-4,0
LEMUR-2-HCS-BAZUS,2026-004AB,2026-06-11T13:55:38.920512,14.90016852,.0004283,97.8017,161.6451,100.2869,259.8832,0,U,67388,999,2247,.44197282E-3,.421E-4,0
